KUIPER-00605            
1 69288U 26118X   26194.83335647 -.00041154  00000+0 -29163-2 0  9991
2 69288  51.8847 286.5018 0004326 331.0518  52.8217 15.04320475  3362
KUIPER-00606            
1 69289U 26118Y   26194.57240243  .00013552  00000+0  36292-3 0  9991
2 69289  51.8708 285.5113 0003440 267.2931  92.7662 15.38311695  8047
KUIPER-00607            
1 69290U 26118Z   26194.51606477  .00019185  00000+0  51388-3 0  9993
2 69290  51.8692 285.8794 0005268 271.1650  88.8734 15.38017508  8032
KUIPER-00608            
1 69291U 26118AA  26194.58700778  .00010704  00000+0  32922-3 0  9991
2 69291  51.8609 286.3077 0007834 294.1956  65.8210 15.34187269  8038
KUIPER-00610            
1 69292U 26118AB  26194.55706756  .00013508  00000+0  35635-3 0  9990
2 69292  51.8732 285.4196 0001948 309.1613  50.9201 15.38780450  8046
KUIPER-00613            
1 69293U 26118AC  26194.83335647 -.00099898  00000+0 -71002-2 0  9994
2 69293  51.8839 286.4985 0007221 300.4707  34.5119 15.04649571  5145
KUIPER-00618            
1 69294U 26118AD  26194.56547205  .00008317  00000+0  23259-3 0  9996
2 69294  51.8725 285.4728 0000638 315.7222  44.3714 15.37533080  8045
KUIPER-00620            
1 69295U 26118AE  26194.55656672  .00014242  00000+0  37555-3 0  9993
2 69295  51.8718 285.4152 0000906 270.6614  89.4269 15.38745899  8040
KUIPER-00423            
1 69592U 26140A   26194.42880299  .00015983  00000+0  42114-3 0  9998
2 69592  51.8805 271.6051 0013594 261.6065  98.3381 15.38591813  5270
KUIPER-00428            
1 69593U 26140B   26194.53054051  .00011019  00000+0  31040-3 0  9992
2 69593  51.8807 271.5301 0007774  25.8270 334.3103 15.36931277  5287
KUIPER-00481            
1 69594U 26140C   26194.56930911  .00002971  00000+0  88669-4 0  9991
2 69594  51.8769 271.0439 0010062 276.0928  83.8913 15.37974349  5290
KUIPER-00490            
1 69595U 26140D   26194.57900941  .00008670  00000+0  23884-3 0  9992
2 69595  51.8779 271.1008 0006853 335.4806  24.5854 15.37933828  5296
KUIPER-00493            
1 69596U 26140E   26194.53553207  .00007490  00000+0  21646-3 0  9991
2 69596  51.8809 271.5621 0007825  32.5326 327.6141 15.36646864  5283
KUIPER-00496            
1 69597U 26140F   26194.55717308  .00009932  00000+0  30527-3 0  9999
2 69597  51.8784 271.6947 0010457  44.1814 316.0005 15.34279190  5287
KUIPER-00513            
1 69598U 26140G   26194.57594286  .00008498  00000+0  23283-3 0  9997
2 69598  51.8805 271.0911 0007374 332.3120  27.7473 15.38131060  5296
KUIPER-00516            
1 69599U 26140H   26194.51865097  .00011081  00000+0  30577-3 0  9999
2 69599  51.8792 271.4472 0006953 348.9117  11.1715 15.37574352  5288
