{"fetched_at":"2026-07-14T06:34:20.123Z","source":"https://celestrak.org/NORAD/elements/gp.php?GROUP=kuiper&FORMAT=JSON","constellation":"kuiper","records":[{"OBJECT_NAME":"KUIPER-00605","OBJECT_ID":"2026-118X","EPOCH":"2026-07-13T20:00:01.999008","CLASSIFICATION_TYPE":"U","MEAN_MOTION":15.04320475,"ECCENTRICITY":0.0004326,"INCLINATION":51.8847,"RA_OF_ASC_NODE":286.5018,"ARG_OF_PERICENTER":331.0518,"MEAN_ANOMALY":52.8217,"EPHEMERIS_TYPE":0,"NORAD_CAT_ID":69288,"ELEMENT_SET_NO":999,"REV_AT_EPOCH":336,"BSTAR":-0.0029163,"MEAN_MOTION_DOT":-0.00041154,"MEAN_MOTION_DDOT":0},{"OBJECT_NAME":"KUIPER-00606","OBJECT_ID":"2026-118Y","EPOCH":"2026-07-13T13:44:15.569952","CLASSIFICATION_TYPE":"U","MEAN_MOTION":15.38311695,"ECCENTRICITY":0.000344,"INCLINATION":51.8708,"RA_OF_ASC_NODE":285.5113,"ARG_OF_PERICENTER":267.2931,"MEAN_ANOMALY":92.7662,"EPHEMERIS_TYPE":0,"NORAD_CAT_ID":69289,"ELEMENT_SET_NO":999,"REV_AT_EPOCH":804,"BSTAR":0.00036292,"MEAN_MOTION_DOT":0.00013552,"MEAN_MOTION_DDOT":0},{"OBJECT_NAME":"KUIPER-00607","OBJECT_ID":"2026-118Z","EPOCH":"2026-07-13T12:23:07.996128","CLASSIFICATION_TYPE":"U","MEAN_MOTION":15.38017508,"ECCENTRICITY":0.0005268,"INCLINATION":51.8692,"RA_OF_ASC_NODE":285.8794,"ARG_OF_PERICENTER":271.165,"MEAN_ANOMALY":88.8734,"EPHEMERIS_TYPE":0,"NORAD_CAT_ID":69290,"ELEMENT_SET_NO":999,"REV_AT_EPOCH":803,"BSTAR":0.00051388,"MEAN_MOTION_DOT":0.00019185,"MEAN_MOTION_DDOT":0},{"OBJECT_NAME":"KUIPER-00608","OBJECT_ID":"2026-118AA","EPOCH":"2026-07-13T14:05:17.472192","CLASSIFICATION_TYPE":"U","MEAN_MOTION":15.34187269,"ECCENTRICITY":0.0007834,"INCLINATION":51.8609,"RA_OF_ASC_NODE":286.3077,"ARG_OF_PERICENTER":294.1956,"MEAN_ANOMALY":65.821,"EPHEMERIS_TYPE":0,"NORAD_CAT_ID":69291,"ELEMENT_SET_NO":999,"REV_AT_EPOCH":803,"BSTAR":0.00032922,"MEAN_MOTION_DOT":0.00010704,"MEAN_MOTION_DDOT":0},{"OBJECT_NAME":"KUIPER-00610","OBJECT_ID":"2026-118AB","EPOCH":"2026-07-13T13:22:10.637184","CLASSIFICATION_TYPE":"U","MEAN_MOTION":15.3878045,"ECCENTRICITY":0.0001948,"INCLINATION":51.8732,"RA_OF_ASC_NODE":285.4196,"ARG_OF_PERICENTER":309.1613,"MEAN_ANOMALY":50.9201,"EPHEMERIS_TYPE":0,"NORAD_CAT_ID":69292,"ELEMENT_SET_NO":999,"REV_AT_EPOCH":804,"BSTAR":0.00035635,"MEAN_MOTION_DOT":0.00013508,"MEAN_MOTION_DDOT":0},{"OBJECT_NAME":"KUIPER-00613","OBJECT_ID":"2026-118AC","EPOCH":"2026-07-13T20:00:01.999008","CLASSIFICATION_TYPE":"U","MEAN_MOTION":15.04649571,"ECCENTRICITY":0.0007221,"INCLINATION":51.8839,"RA_OF_ASC_NODE":286.4985,"ARG_OF_PERICENTER":300.4707,"MEAN_ANOMALY":34.5119,"EPHEMERIS_TYPE":0,"NORAD_CAT_ID":69293,"ELEMENT_SET_NO":999,"REV_AT_EPOCH":514,"BSTAR":-0.0071002,"MEAN_MOTION_DOT":-0.00099898,"MEAN_MOTION_DDOT":0},{"OBJECT_NAME":"KUIPER-00618","OBJECT_ID":"2026-118AD","EPOCH":"2026-07-13T13:34:16.785120","CLASSIFICATION_TYPE":"U","MEAN_MOTION":15.3753308,"ECCENTRICITY":0.0000638,"INCLINATION":51.8725,"RA_OF_ASC_NODE":285.4728,"ARG_OF_PERICENTER":315.7222,"MEAN_ANOMALY":44.3714,"EPHEMERIS_TYPE":0,"NORAD_CAT_ID":69294,"ELEMENT_SET_NO":999,"REV_AT_EPOCH":804,"BSTAR":0.00023259,"MEAN_MOTION_DOT":0.00008317,"MEAN_MOTION_DDOT":0},{"OBJECT_NAME":"KUIPER-00620","OBJECT_ID":"2026-118AE","EPOCH":"2026-07-13T13:21:27.364608","CLASSIFICATION_TYPE":"U","MEAN_MOTION":15.38745899,"ECCENTRICITY":0.0000906,"INCLINATION":51.8718,"RA_OF_ASC_NODE":285.4152,"ARG_OF_PERICENTER":270.6614,"MEAN_ANOMALY":89.4269,"EPHEMERIS_TYPE":0,"NORAD_CAT_ID":69295,"ELEMENT_SET_NO":999,"REV_AT_EPOCH":804,"BSTAR":0.00037555,"MEAN_MOTION_DOT":0.00014242,"MEAN_MOTION_DDOT":0},{"OBJECT_NAME":"KUIPER-00423","OBJECT_ID":"2026-140A","EPOCH":"2026-07-13T10:17:28.578336","CLASSIFICATION_TYPE":"U","MEAN_MOTION":15.38591813,"ECCENTRICITY":0.00135947,"INCLINATION":51.8805,"RA_OF_ASC_NODE":271.6051,"ARG_OF_PERICENTER":261.6065,"MEAN_ANOMALY":98.3381,"EPHEMERIS_TYPE":0,"NORAD_CAT_ID":69592,"ELEMENT_SET_NO":999,"REV_AT_EPOCH":527,"BSTAR":0.00042113718,"MEAN_MOTION_DOT":0.00015983,"MEAN_MOTION_DDOT":0},{"OBJECT_NAME":"KUIPER-00428","OBJECT_ID":"2026-140B","EPOCH":"2026-07-13T12:43:58.700064","CLASSIFICATION_TYPE":"U","MEAN_MOTION":15.36931277,"ECCENTRICITY":0.0007774,"INCLINATION":51.8807,"RA_OF_ASC_NODE":271.5301,"ARG_OF_PERICENTER":25.827,"MEAN_ANOMALY":334.3103,"EPHEMERIS_TYPE":0,"NORAD_CAT_ID":69593,"ELEMENT_SET_NO":999,"REV_AT_EPOCH":528,"BSTAR":0.0003104,"MEAN_MOTION_DOT":0.00011019,"MEAN_MOTION_DDOT":0},{"OBJECT_NAME":"KUIPER-00481","OBJECT_ID":"2026-140C","EPOCH":"2026-07-13T13:39:48.307104","CLASSIFICATION_TYPE":"U","MEAN_MOTION":15.37974349,"ECCENTRICITY":0.0010062,"INCLINATION":51.8769,"RA_OF_ASC_NODE":271.0439,"ARG_OF_PERICENTER":276.0928,"MEAN_ANOMALY":83.8913,"EPHEMERIS_TYPE":0,"NORAD_CAT_ID":69594,"ELEMENT_SET_NO":999,"REV_AT_EPOCH":529,"BSTAR":0.000088669,"MEAN_MOTION_DOT":0.00002971,"MEAN_MOTION_DDOT":0},{"OBJECT_NAME":"KUIPER-00490","OBJECT_ID":"2026-140D","EPOCH":"2026-07-13T13:53:46.413024","CLASSIFICATION_TYPE":"U","MEAN_MOTION":15.37933828,"ECCENTRICITY":0.0006853,"INCLINATION":51.8779,"RA_OF_ASC_NODE":271.1008,"ARG_OF_PERICENTER":335.4806,"MEAN_ANOMALY":24.5854,"EPHEMERIS_TYPE":0,"NORAD_CAT_ID":69595,"ELEMENT_SET_NO":999,"REV_AT_EPOCH":529,"BSTAR":0.00023884,"MEAN_MOTION_DOT":0.0000867,"MEAN_MOTION_DDOT":0},{"OBJECT_NAME":"KUIPER-00493","OBJECT_ID":"2026-140E","EPOCH":"2026-07-13T12:51:09.970848","CLASSIFICATION_TYPE":"U","MEAN_MOTION":15.36646864,"ECCENTRICITY":0.0007825,"INCLINATION":51.8809,"RA_OF_ASC_NODE":271.5621,"ARG_OF_PERICENTER":32.5326,"MEAN_ANOMALY":327.6141,"EPHEMERIS_TYPE":0,"NORAD_CAT_ID":69596,"ELEMENT_SET_NO":999,"REV_AT_EPOCH":528,"BSTAR":0.00021646,"MEAN_MOTION_DOT":0.0000749,"MEAN_MOTION_DDOT":0},{"OBJECT_NAME":"KUIPER-00496","OBJECT_ID":"2026-140F","EPOCH":"2026-07-13T13:22:19.754112","CLASSIFICATION_TYPE":"U","MEAN_MOTION":15.3427919,"ECCENTRICITY":0.0010457,"INCLINATION":51.8784,"RA_OF_ASC_NODE":271.6947,"ARG_OF_PERICENTER":44.1814,"MEAN_ANOMALY":316.0005,"EPHEMERIS_TYPE":0,"NORAD_CAT_ID":69597,"ELEMENT_SET_NO":999,"REV_AT_EPOCH":528,"BSTAR":0.00030527,"MEAN_MOTION_DOT":0.00009932,"MEAN_MOTION_DDOT":0},{"OBJECT_NAME":"KUIPER-00513","OBJECT_ID":"2026-140G","EPOCH":"2026-07-13T13:49:21.463104","CLASSIFICATION_TYPE":"U","MEAN_MOTION":15.3813106,"ECCENTRICITY":0.0007374,"INCLINATION":51.8805,"RA_OF_ASC_NODE":271.0911,"ARG_OF_PERICENTER":332.312,"MEAN_ANOMALY":27.7473,"EPHEMERIS_TYPE":0,"NORAD_CAT_ID":69598,"ELEMENT_SET_NO":999,"REV_AT_EPOCH":529,"BSTAR":0.00023283,"MEAN_MOTION_DOT":0.00008498,"MEAN_MOTION_DDOT":0},{"OBJECT_NAME":"KUIPER-00516","OBJECT_ID":"2026-140H","EPOCH":"2026-07-13T12:26:51.443808","CLASSIFICATION_TYPE":"U","MEAN_MOTION":15.37574352,"ECCENTRICITY":0.0006953,"INCLINATION":51.8792,"RA_OF_ASC_NODE":271.4472,"ARG_OF_PERICENTER":348.9117,"MEAN_ANOMALY":11.1715,"EPHEMERIS_TYPE":0,"NORAD_CAT_ID":69599,"ELEMENT_SET_NO":999,"REV_AT_EPOCH":528,"BSTAR":0.00030577,"MEAN_MOTION_DOT":0.00011081,"MEAN_MOTION_DDOT":0}]}
